satname,norad_id,inclination_deg,eccentricity,mean_motion_rev_per_day,perigee_km,apogee_km,l1,l2
STARLINK-1184,45098,53.0566,0.0005871,15.09247179,534.4383284310588,542.5598425226253,1 45098U 20006BG  26041.32578631  .00020738  00000+0  13023-2 0  9992,2 45098  53.0566   8.8990 0005871  53.4232 306.7298 15.09247179332904
STARLINK-1193,45100,53.0552,0.000498,15.47378969,421.0092378570107,427.7845616211516,1 45100U 20006BJ  26041.26105663  .00073810  00000+0  14141-2 0  9991,2 45100  53.0552   2.1979 0004980  97.4872 262.6701 15.47378969332997
STARLINK-1143,45179,53.048,0.0004416,15.56771834,394.01510865015734,399.99891584177385,1 45179U 20012B   26042.47943544  .00038001  00000+0  52555-3 0  9991,2 45179  53.0480  97.4509 0004416 339.8650  20.2186 15.56771834331835
STARLINK-1202,45183,53.1587,0.0001385,15.30197036,474.274728916007,476.1731098906821,1 45183U 20012F   26042.56259814  .00004382  00000+0  16000-3 0  9996,2 45183  53.1587 160.6073 0001385  80.8273 279.2885 15.30197036330956
STARLINK-1216,45185,53.1609,0.0001276,15.30196453,474.35117106699727,476.1001492178648,1 45185U 20012H   26042.61842981  .00001650  00000+0  67831-4 0  9991,2 45185  53.1609 160.3283 0001276  94.2126 265.9021 15.30196453330909
STARLINK-1225,45187,53.16,0.0001165,15.30195746,474.42935413012583,476.02618812179844,1 45187U 20012K   26042.61533833  .00003987  00000+0  14669-3 0  9991,2 45187  53.1600 160.7809 0001165  93.7742 266.3392 15.30195746330949
STARLINK-1230,45189,53.1601,0.0001659,15.30188851,474.11138189484427,476.3853351568041,1 45189U 20012M   26042.55951825  .00016081  00000+0  55409-3 0  9997,2 45189  53.1601 161.1006 0001659  99.3380 260.7808 15.30188851328164
STARLINK-1234,45190,53.0456,0.0006792,15.56193527,394.082593501309,403.2882290647958,1 45190U 20012N   26041.91667824  .00131813  00000+0  18230-2 0  9992,2 45190  53.0456  95.5345 0006792 244.2361 100.6117 15.56193527  5860
STARLINK-1269,45197,53.16,0.0001257,15.30205235,474.3379743071564,476.06090308784496,1 45197U 20012V   26042.62164731  .00003967  00000+0  14596-3 0  9997,2 45197  53.1600 160.6713 0001257  95.3697 264.7447 15.30205235330928
STARLINK-1154,45198,53.05,0.0006891,15.42324279,434.5536504639076,443.94937531236974,1 45198U 20012W   26042.53289276  .00087269  00000+0  19797-2 0  9994,2 45198  53.0500 134.3659 0006891 349.4370  10.6489 15.42324279331258
STARLINK-1199,45201,53.0559,0.0001397,15.06399943,546.244261417125,548.179203853023,1 45201U 20012Z   26042.59375464  .00001771  00000+0  13778-3 0  9998,2 45201  53.0559 143.7702 0001397  88.5880 271.5269 15.06399943331189
STARLINK-1209,45206,53.0481,0.0008131,15.46286608,422.0665057688302,433.1339956859638,1 45206U 20012AE  26042.47138179  .00093666  00000+0  18550-2 0  9996,2 45206  53.0481  98.9784 0008131 213.9881 146.0605 15.46286608330857
STARLINK-1210,45207,53.0108,0.0006827,15.9579871,281.54012400484135,290.6394592661418,1 45207U 20012AF  26042.58335648  .00366298  64770-4  88679-3 0  9992,2 45207  53.0108  34.3811 0006827  60.9377 299.6029 15.95798710  6041
STARLINK-1231,45212,53.0463,0.0002734,15.18871273,507.36766462050673,511.13368820196865,1 45212U 20012AL  26042.57422994  .00022312  00000+0  10689-2 0  9990,2 45212  53.0463 135.5114 0002734 344.6729  15.4182 15.18871273331256
STARLINK-1271,45217,53.055,0.0001236,15.06414011,546.3126487998534,548.0245843482708,1 45217U 20012AR  26042.51265380 -.00001813  00000+0 -10284-3 0  9990,2 45217  53.0550 144.1314 0001236  98.1087 262.0043 15.06414011331177
STARLINK-1191,45222,53.161,0.0001426,15.31039059,471.7340037859185,473.68786561689467,1 45222U 20012AW  26042.48561489  .00003814  00000+0  13732-3 0  9993,2 45222  53.1610 120.6236 0001426  92.4905 267.6260 15.31039059331502
STARLINK-1212,45223,53.0526,0.0003985,15.43678734,432.54797966972,437.97825956505403,1 45223U 20012AX  26042.57122320  .00098821  00000+0  21388-2 0  9998,2 45223  53.0526 114.9984 0003985  11.0019 349.1073 15.43678734331598
STARLINK-1215,45225,53.16,0.0001516,15.30193799,474.1946135694943,476.2725555307288,1 45225U 20012AZ  26042.52978986  .00000915  00000+0  43022-4 0  9990,2 45225  53.1600 119.8172 0001516  77.0936 283.0234 15.30193799331476
STARLINK-1221,45227,53.0669,0.0001992,15.40918256,442.0390859472982,444.7567854656836,1 45227U 20012BB  26042.39243379  .00019933  00000+0  48584-3 0  9995,2 45227  53.0669  34.1281 0001992 329.8628  30.2261 15.40918256332653
STARLINK-1222,45228,53.0554,0.0002192,15.47399966,422.8442609695685,425.8264648534687,1 45228U 20012BC  26042.48342637  .00042500  00000+0  82074-3 0  9991,2 45228  53.0554 108.2846 0002192  23.4904 336.6203 15.47399966331560
STARLINK-1226,45229,53.1607,0.0001207,15.3103289,471.9024378972126,473.5562370310763,1 45229U 20012BD  26042.56752060  .00003914  00000+0  14064-3 0  9996,2 45229  53.1607 120.0418 0001207  92.0324 268.0816 15.31032890331417
STARLINK-1227,45230,53.1617,0.0001514,15.31033323,471.6908248085592,473.76526674442084,1 45230U 20012BE  26042.52989688  .00002093  00000+0  80770-4 0  9997,2 45230  53.1617 120.5352 0001514  68.1792 291.9370 15.31033323331520
STARLINK-1246,45235,53.1582,0.0001502,15.30193212,474.2059607136489,476.26471376375594,1 45235U 20012BK  26042.56576104  .00001314  00000+0  56508-4 0  9998,2 45235  53.1582 160.5920 0001502  72.4567 287.6598 15.30193212330971
STARLINK-1270,45237,53.0504,0.0003932,15.42688501,435.49825838126617,440.85860883825717,1 45237U 20012BM  26042.50767146  .00071099  00000+0  15992-2 0  9999,2 45237  53.0504 112.1915 0003932 326.5786  33.4970 15.42688501331625
STARLINK-1279,45360,53.0459,0.0006823,15.52090227,405.9922202270682,415.2561637496565,1 45360U 20019A   26042.53413936  .00113286  00000+0  18246-2 0  9991,2 45360  53.0459 225.1066 0006823 128.2537 231.9087 15.52090227326605
STARLINK-1301,45361,53.0449,0.0009067,15.58659323,385.3981828625074,397.67430832606806,1 45361U 20019B   26042.58335648  .00191415  00000+0  23919-2 0  9993,2 45361  53.0449 231.6117 0009067 126.1401  44.6973 15.58659323  5975
STARLINK-1262,45366,53.0541,0.0001396,15.06403475,546.2341304123438,548.1676847561412,1 45366U 20019G   26042.08694119  .00000552  00000+0  55965-4 0  9993,2 45366  53.0541 286.0430 0001396  83.8127 276.3021 15.06403475325720
STARLINK-1273,45367,53.0541,0.0002397,15.41088276,441.2612025915605,444.53120590967865,1 45367U 20019H   26042.03821293  .00074489  00000+0  17662-2 0  9994,2 45367  53.0541 281.2988 0002397 119.3209 240.8035 15.41088276325788
STARLINK-1276,45368,53.0556,0.000175,15.06390362,546.0291560106389,548.4530383446518,1 45368U 20019J   26041.94688281  .00000291  00000+0  38462-4 0  9995,2 45368  53.0556 286.6660 0001750  84.0157 276.1032 15.06390362325707
STARLINK-1277,45369,53.0544,0.0001819,15.44185674,432.5327731470079,435.0109455900465,1 45369U 20019K   26042.39039255  .00024522  00000+0  53364-3 0  9997,2 45369  53.0544 278.1215 0001819  59.0977 301.0207 15.44185674325864
STARLINK-1281,45370,53.054,0.0001478,15.0639561,546.2014441832016,548.2485811941524,1 45370U 20019L   26042.06851971  .00002318  00000+0  17448-3 0  9992,2 45370  53.0540 286.1238 0001478  93.6361 266.4797 15.06395610325722
STARLINK-1300,45374,53.0541,0.0001447,15.0641417,546.1660376173531,548.1702209217647,1 45374U 20019Q   26041.89159536  .00006979  00000+0  48675-3 0  9997,2 45374  53.0541 286.9190 0001447  77.7236 282.3915 15.06414170325690
STARLINK-1302,45375,53.0539,0.0002106,15.4500261,429.9363209259018,432.8044854441223,1 45375U 20019R   26041.97709080  .00083009  00000+0  17229-2 0  9991,2 45375  53.0539 279.5474 0002106 104.6911 255.4328 15.45002610325801
STARLINK-1304,45376,53.0524,0.0005315,15.43676533,431.6482704504733,438.8909216620814,1 45376U 20019S   26041.94362457  .00074220  00000+0  16135-2 0  9992,2 45376  53.0524 277.0236 0005315 129.3761 230.7716 15.43676533325836
STARLINK-1305,45377,53.0475,0.0006505,15.47875451,418.5181086606199,427.36631271372426,1 45377U 20019T   26042.02053795  .00100291  00000+0  18787-2 0  9998,2 45377  53.0475 260.2949 0006505  89.3527 270.8225 15.47875451326086
STARLINK-1319,45379,53.0499,0.0006448,15.53587554,401.88696574093683,410.6361261057591,1 45379U 20019V   26041.92297783  .00074844  00000+0  11502-2 0  9997,2 45379  53.0499 259.7328 0006448 102.6912 257.4819 15.53587554326082
STARLINK-1266,45383,53.0521,0.0001878,15.41892692,439.24306689960304,441.80415582523074,1 45383U 20019Z   26041.91486541  .00015131  00000+0  35962-3 0  9994,2 45383  53.0521 260.1634 0001878 117.4323 242.6873 15.41892692326064
STARLINK-1267,45384,53.0527,0.0007422,15.45197628,425.74385212720335,435.8510344147944,1 45384U 20019AA  26041.81392625  .00103570  00000+0  21259-2 0  9991,2 45384  53.0527 255.4312 0007422 141.0091 219.1452 15.45197628326127
STARLINK-1272,45386,53.0461,0.0006771,15.51154633,408.7552041592535,417.9522408957009,1 45386U 20019AC  26042.55118583  .00141171  00000+0  23409-2 0  9992,2 45386  53.0461 235.9106 0006771 110.7543 249.4192 15.51154633326461
STARLINK-1274,45387,53.0291,0.0009555,15.43538313,429.1657403672234,442.1869376580771,1 45387U 20019AD  26042.52859363  .00072904  00000+0  15910-2 0  9993,2 45387  53.0291 227.6388 0009555 144.1842 215.9805 15.43538313326572
STARLINK-1280,45388,53.0462,0.0006844,15.59793745,383.6225873016783,392.88442262487115,1 45388U 20019AE  26042.17684686  .00105639  00000+0  12817-2 0  9994,2 45388  53.0462 252.2024 0006844 114.1998 245.9730 15.59793745326198
STARLINK-1283,45389,53.0472,0.0011964,15.5051021,407.10778758007655,423.3629690068574,1 45389U 20019AF  26040.98884495  .00119220  00000+0  20258-2 0  9991,2 45389  53.0472 243.5866 0011964 135.3830 224.8143 15.50510210326229
STARLINK-1284,45390,53.0518,0.0002923,15.47072916,423.3053777946552,427.28266356934546,1 45390U 20019AG  26042.03630055  .00069022  00000+0  13381-2 0  9995,2 45390  53.0518 258.7510 0002923 133.9328 226.1920 15.47072916326092
